start=new Date('2021-12-29T00:00:00.000Z').valueOf();
sats=[{"CENTER_NAME":"EARTH","APOAPSIS":"548.524","EPHEMERIS_TYPE":"0","GP_ID":"192673602","ARG_OF_PERICENTER":"57.5662","CLASSIFICATION_TYPE":"U","ELEMENT_SET_NO":"999","MEAN_ELEMENT_THEORY":"SGP4","BSTAR":"0.00031540000000","ECCENTRICITY":"0.00019080","MEAN_MOTION":"15.06403490","OBJECT_ID":"2020-006BL","COUNTRY_CODE":"US","FILE":"3254265","SITE":"AFETR","DECAY_DATE":null,"MEAN_MOTION_DDOT":"0.0000000000000","RA_OF_ASC_NODE":"283.6468","TLE_LINE1":"1 45102U 20006BL  21362.77881951  .00004420  00000-0  31540-3 0  9996","RCS_SIZE":"LARGE","TIME_SYSTEM":"UTC","OBJECT_NAME":"STARLINK-1195","TLE_LINE2":"2 45102  53.0546 283.6468 0001908  57.5662 302.5511 15.06403490106122","SEMIMAJOR_AXIS":"6925.338","NORAD_CAT_ID":"45102","EPOCH":"2021-12-28T18:41:30.005664","INCLINATION":"53.0546","REV_AT_EPOCH":"10612","MEAN_ANOMALY":"302.5511","REF_FRAME":"TEME","OBJECT_TYPE":"PAYLOAD","LAUNCH_DATE":"2020-01-29","PERIAPSIS":"545.882","PERIOD":"95.592","MEAN_MOTION_DOT":"0.00004420"},{"EPOCH":"2021-12-28T22:38:58.915680","INCLINATION":"53.0539","TLE_LINE1":"1 45103U 20006BM  21362.94373745  .00003229  00000-0  23553-3 0  9994","RA_OF_ASC_NODE":"282.9691","RCS_SIZE":"LARGE","OBJECT_NAME":"STARLINK-1196","TIME_SYSTEM":"UTC","SEMIMAJOR_AXIS":"6925.339","TLE_LINE2":"2 45103  53.0539 282.9691 0001823  62.0522 298.0652 15.06403004106156","NORAD_CAT_ID":"45103","REF_FRAME":"TEME","OBJECT_TYPE":"PAYLOAD","PERIAPSIS":"545.942","LAUNCH_DATE":"2020-01-29","PERIOD":"95.592","MEAN_MOTION_DOT":"0.00003229","REV_AT_EPOCH":"10615","MEAN_ANOMALY":"298.0652","BSTAR":"0.00023553000000","MEAN_ELEMENT_THEORY":"SGP4","ECCENTRICITY":"0.00018230","OBJECT_ID":"2020-006BM","MEAN_MOTION":"15.06403004","APOAPSIS":"548.467","CENTER_NAME":"EARTH","EPHEMERIS_TYPE":"0","GP_ID":"192673352","CLASSIFICATION_TYPE":"U","ARG_OF_PERICENTER":"62.0522","ELEMENT_SET_NO":"999","DECAY_DATE":null,"MEAN_MOTION_DDOT":"0.0000000000000","COUNTRY_CODE":"US","SITE":"AFETR","FILE":"3254265"},{"SITE":"AFETR","FILE":"3253660","COUNTRY_CODE":"US","DECAY_DATE":null,"MEAN_MOTION_DDOT":"0.0000000000000","GP_ID":"192637594","CLASSIFICATION_TYPE":"U","ARG_OF_PERICENTER":"90.7291","ELEMENT_SET_NO":"999","APOAPSIS":"548.141","CENTER_NAME":"EARTH","EPHEMERIS_TYPE":"0","ECCENTRICITY":"0.00013380","MEAN_MOTION":"15.06399619","OBJECT_ID":"2020-012A","BSTAR":"-0.00001446400000","MEAN_ELEMENT_THEORY":"SGP4","MEAN_ANOMALY":"269.3852","REV_AT_EPOCH":"10385","LAUNCH_DATE":"2020-02-17","PERIAPSIS":"546.288","PERIOD":"95.592","MEAN_MOTION_DOT":"-0.00000497","REF_FRAME":"TEME","OBJECT_TYPE":"PAYLOAD","OBJECT_NAME":"STARLINK-1138","TIME_SYSTEM":"UTC","TLE_LINE2":"2 45178  53.0544  84.4360 0001338  90.7291 269.3852 15.06399619103857","NORAD_CAT_ID":"45178","SEMIMAJOR_AXIS":"6925.350","RA_OF_ASC_NODE":"84.4360","TLE_LINE1":"1 45178U 20012A   21362.59820332 -.00000497  00000-0 -14464-4 0  9991","RCS_SIZE":"LARGE","INCLINATION":"53.0544","EPOCH":"2021-12-28T14:21:24.766848"},{"MEAN_ANOMALY":"275.9929","REV_AT_EPOCH":"10392","MEAN_MOTION_DOT":"0.00001177","PERIOD":"95.592","LAUNCH_DATE":"2020-02-17","PERIAPSIS":"546.290","OBJECT_TYPE":"PAYLOAD","REF_FRAME":"TEME","NORAD_CAT_ID":"45179","TLE_LINE2":"2 45179  53.0531  84.1355 0001331  84.1212 275.9929 15.06400711103920","SEMIMAJOR_AXIS":"6925.346","OBJECT_NAME":"STARLINK-1143","TIME_SYSTEM":"UTC","RCS_SIZE":"LARGE","RA_OF_ASC_NODE":"84.1355","TLE_LINE1":"1 45179U 20012B   21362.66823579  .00001177  00000-0  97869-4 0  9990","INCLINATION":"53.0531","EPOCH":"2021-12-28T16:02:15.572256","SITE":"AFETR","FILE":"3254265","COUNTRY_CODE":"US","MEAN_MOTION_DDOT":"0.0000000000000","DECAY_DATE":null,"ELEMENT_SET_NO":"999","ARG_OF_PERICENTER":"84.1212","CLASSIFICATION_TYPE":"U","GP_ID":"192673109","EPHEMERIS_TYPE":"0","CENTER_NAME":"EARTH","APOAPSIS":"548.133","MEAN_MOTION":"15.06400711","OBJECT_ID":"2020-012B","ECCENTRICITY":"0.00013310","BSTAR":"0.00009786900000","MEAN_ELEMENT_THEORY":"SGP4"},{"OBJECT_NAME":"STARLINK-1192","TIME_SYSTEM":"UTC","TLE_LINE2":"2 45180  53.0509  84.1736 0001376  83.6145 276.5001 15.06395501103926","NORAD_CAT_ID":"45180","SEMIMAJOR_AXIS":"6925.362","RCS_SIZE":"LARGE","RA_OF_ASC_NODE":"84.1736","TLE_LINE1":"1 45180U 20012C   21362.65992388  .00000555  00000-0  56158-4 0  9991","INCLINATION":"53.0509","EPOCH":"2021-12-28T15:50:17.423232","MEAN_ANOMALY":"276.5001","REV_AT_EPOCH":"10392","PERIAPSIS":"546.274","LAUNCH_DATE":"2020-02-17","MEAN_MOTION_DOT":"0.00000555","PERIOD":"95.592","OBJECT_TYPE":"PAYLOAD","REF_FRAME":"TEME","GP_ID":"192673860","ELEMENT_SET_NO":"999","ARG_OF_PERICENTER":"83.6145","CLASSIFICATION_TYPE":"U","EPHEMERIS_TYPE":"0","APOAPSIS":"548.180","CENTER_NAME":"EARTH","MEAN_MOTION":"15.06395501","OBJECT_ID":"2020-012C","ECCENTRICITY":"0.00013760","BSTAR":"0.00005615800000","MEAN_ELEMENT_THEORY":"SGP4","FILE":"3254265","SITE":"AFETR","COUNTRY_CODE":"US","DECAY_DATE":null,"MEAN_MOTION_DDOT":"0.0000000000000"},{"RCS_SIZE":"LARGE","TLE_LINE1":"1 45181U 20012D   21362.65349712  .00000607  00000-0  59653-4 0  9990","RA_OF_ASC_NODE":"84.1868","NORAD_CAT_ID":"45181","TLE_LINE2":"2 45181  53.0547  84.1868 0001308  82.3520 277.7617 15.06399650103928","SEMIMAJOR_AXIS":"6925.350","TIME_SYSTEM":"UTC","OBJECT_NAME":"STARLINK-1200","EPOCH":"2021-12-28T15:41:02.151168","INCLINATION":"53.0547","REV_AT_EPOCH":"10392","MEAN_ANOMALY":"277.7617","OBJECT_TYPE":"PAYLOAD","REF_FRAME":"TEME","MEAN_MOTION_DOT":"0.00000607","PERIOD":"95.592","LAUNCH_DATE":"2020-02-17","PERIAPSIS":"546.309","EPHEMERIS_TYPE":"0","CENTER_NAME":"EARTH","APOAPSIS":"548.120","ELEMENT_SET_NO":"999","CLASSIFICATION_TYPE":"U","ARG_OF_PERICENTER":"82.3520","GP_ID":"192672108","BSTAR":"0.00005965300000","MEAN_ELEMENT_THEORY":"SGP4","MEAN_MOTION":"15.06399650","OBJECT_ID":"2020-012D","ECCENTRICITY":"0.00013080","COUNTRY_CODE":"US","FILE":"3254265","SITE":"AFETR","MEAN_MOTION_DDOT":"0.0000000000000","DECAY_DATE":null},{"MEAN_MOTION":"15.06405895","OBJECT_ID":"2020-012E","ECCENTRICITY":"0.00012660","BSTAR":"0.00016811000000","MEAN_ELEMENT_THEORY":"SGP4","ELEMENT_SET_NO":"999","CLASSIFICATION_TYPE":"U","ARG_OF_PERICENTER":"85.4356","GP_ID":"192672858","EPHEMERIS_TYPE":"0","APOAPSIS":"548.072","CENTER_NAME":"EARTH","MEAN_MOTION_DDOT":"0.0000000000000","DECAY_DATE":null,"SITE":"AFETR","FILE":"3254265","COUNTRY_CODE":"US","INCLINATION":"53.0549","EPOCH":"2021-12-28T16:10:13.181088","NORAD_CAT_ID":"45182","TLE_LINE2":"2 45182  53.0549  64.1155 0001266  85.4356 274.6777 15.06405895104059","SEMIMAJOR_AXIS":"6925.330","TIME_SYSTEM":"UTC","OBJECT_NAME":"STARLINK-1201","RCS_SIZE":"LARGE","RA_OF_ASC_NODE":"64.1155","TLE_LINE1":"1 45182U 20012E   21362.67376367  .00002224  00000-0  16811-3 0  9994","MEAN_MOTION_DOT":"0.00002224","PERIOD":"95.592","LAUNCH_DATE":"2020-02-17","PERIAPSIS":"546.319","OBJECT_TYPE":"PAYLOAD","REF_FRAME":"TEME","MEAN_ANOMALY":"274.6777","REV_AT_EPOCH":"10405"},{"MEAN_MOTION_DDOT":"0.0000000000000","DECAY_DATE":null,"FILE":"3254265","SITE":"AFETR","COUNTRY_CODE":"US","OBJECT_ID":"2020-012F","MEAN_MOTION":"15.06408995","ECCENTRICITY":"0.00015100","BSTAR":"0.00059936000000","MEAN_ELEMENT_THEORY":"SGP4","ELEMENT_SET_NO":"999","CLASSIFICATION_TYPE":"U","ARG_OF_PERICENTER":"90.9253","GP_ID":"192673610","EPHEMERIS_TYPE":"0","APOAPSIS":"548.232","CENTER_NAME":"EARTH","MEAN_MOTION_DOT":"0.00008659","PERIOD":"95.592","LAUNCH_DATE":"2020-02-17","PERIAPSIS":"546.140","OBJECT_TYPE":"PAYLOAD","REF_FRAME":"TEME","MEAN_ANOMALY":"269.1909","REV_AT_EPOCH":"10393","INCLINATION":"53.0538","EPOCH":"2021-12-28T16:34:06.301344","TLE_LINE2":"2 45183  53.0538  84.0306 0001510  90.9253 269.1909 15.06408995103932","SEMIMAJOR_AXIS":"6925.321","NORAD_CAT_ID":"45183","TIME_SYSTEM":"UTC","OBJECT_NAME":"STARLINK-1202","RCS_SIZE":"LARGE","RA_OF_ASC_NODE":"84.0306","TLE_LINE1":"1 45183U 20012F   21362.69035071  .00008659  00000-0  59936-3 0  9994"},{"COUNTRY_CODE":"US","FILE":"3254265","SITE":"AFETR","MEAN_MOTION_DDOT":"0.0000000000000","DECAY_DATE":null,"EPHEMERIS_TYPE":"0","CENTER_NAME":"EARTH","APOAPSIS":"548.189","ELEMENT_SET_NO":"999","CLASSIFICATION_TYPE":"U","ARG_OF_PERICENTER":"82.5168","GP_ID":"192673360","BSTAR":"0.00032078000000","MEAN_ELEMENT_THEORY":"SGP4","OBJECT_ID":"2020-012G","MEAN_MOTION":"15.06402995","ECCENTRICITY":"0.00014220","REV_AT_EPOCH":"10323","MEAN_ANOMALY":"277.5982","OBJECT_TYPE":"PAYLOAD","REF_FRAME":"TEME","MEAN_MOTION_DOT":"0.00004500","PERIOD":"95.592","PERIAPSIS":"546.220","LAUNCH_DATE":"2020-02-17","RCS_SIZE":"LARGE","TLE_LINE1":"1 45184U 20012G   21362.61479098  .00004500  00000-0  32078-3 0  9997","RA_OF_ASC_NODE":"64.3627","TLE_LINE2":"2 45184  53.0539  64.3627 0001422  82.5168 277.5982 15.06402995103236","SEMIMAJOR_AXIS":"6925.339","NORAD_CAT_ID":"45184","OBJECT_NAME":"STARLINK-1205","TIME_SYSTEM":"UTC","EPOCH":"2021-12-28T14:45:17.940672","INCLINATION":"53.0539"},{"REV_AT_EPOCH":"10388","MEAN_ANOMALY":"278.2974","REF_FRAME":"TEME","OBJECT_TYPE":"PAYLOAD","PERIOD":"95.592","MEAN_MOTION_DOT":"0.00001721","LAUNCH_DATE":"2020-02-17","PERIAPSIS":"546.200","RA_OF_ASC_NODE":"83.7653","TLE_LINE1":"1 45185U 20012H   21362.74932835  .00001721  00000-0  13439-3 0  9997","RCS_SIZE":"LARGE","SEMIMAJOR_AXIS":"6925.355","TLE_LINE2":"2 45185  53.0541  83.7653 0001473  81.8182 278.2974 15.06397745103884","NORAD_CAT_ID":"45185","OBJECT_NAME":"STARLINK-1216","TIME_SYSTEM":"UTC","EPOCH":"2021-12-28T17:59:01.969440","INCLINATION":"53.0541","COUNTRY_CODE":"US","SITE":"AFETR","FILE":"3254265","MEAN_MOTION_DDOT":"0.0000000000000","DECAY_DATE":null,"APOAPSIS":"548.241","CENTER_NAME":"EARTH","EPHEMERIS_TYPE":"0","CLASSIFICATION_TYPE":"U","ARG_OF_PERICENTER":"81.8182","ELEMENT_SET_NO":"999","GP_ID":"192672609","BSTAR":"0.00013439000000","MEAN_ELEMENT_THEORY":"SGP4","ECCENTRICITY":"0.00014730","OBJECT_ID":"2020-012H","MEAN_MOTION":"15.06397745"}];
